[
  {
    "OBJECT_NAME": "CYGFM04",
    "OBJECT_ID": "2016-078B",
    "EPOCH": "2025-06-07T09:55:35.083200",
    "MEAN_MOTION": 15.42506179,
    "ECCENTRICITY": 0.0010075,
    "INCLINATION": 34.9343,
    "RA_OF_ASC_NODE": 168.7032,
    "ARG_OF_PERICENTER": 247.7822,
    "MEAN_ANOMALY": 112.1829,
    "EPHEMERIS_TYPE": 0,
    "CLASSIFICATION_TYPE": "U",
    "NORAD_CAT_ID": 41885,
    "ELEMENT_SET_NO": 999,
    "REV_AT_EPOCH": 47078,
    "BSTAR": 0.00022625,
    "MEAN_MOTION_DOT": 0.00010083,
    "MEAN_MOTION_DDOT": 0
  },
  {
    "OBJECT_NAME": "CYGFM02",
    "OBJECT_ID": "2016-078C",
    "EPOCH": "2025-06-07T10:04:41.910528",
    "MEAN_MOTION": 15.43335118,
    "ECCENTRICITY": 0.00118,
    "INCLINATION": 34.9431,
    "RA_OF_ASC_NODE": 168.9528,
    "ARG_OF_PERICENTER": 242.5816,
    "MEAN_ANOMALY": 117.3704,
    "EPHEMERIS_TYPE": 0,
    "CLASSIFICATION_TYPE": "U",
    "NORAD_CAT_ID": 41886,
    "ELEMENT_SET_NO": 999,
    "REV_AT_EPOCH": 47089,
    "BSTAR": 0.00024741,
    "MEAN_MOTION_DOT": 0.00011353,
    "MEAN_MOTION_DDOT": 0
  },
  {
    "OBJECT_NAME": "CYGFM01",
    "OBJECT_ID": "2016-078D",
    "EPOCH": "2025-06-07T12:02:33.448128",
    "MEAN_MOTION": 15.40982602,
    "ECCENTRICITY": 0.0010117,
    "INCLINATION": 34.9429,
    "RA_OF_ASC_NODE": 192.4689,
    "ARG_OF_PERICENTER": 216.1266,
    "MEAN_ANOMALY": 143.877,
    "EPHEMERIS_TYPE": 0,
    "CLASSIFICATION_TYPE": "U",
    "NORAD_CAT_ID": 41887,
    "ELEMENT_SET_NO": 999,
    "REV_AT_EPOCH": 47059,
    "BSTAR": 0.00021523,
    "MEAN_MOTION_DOT": 9.109e-05,
    "MEAN_MOTION_DDOT": 0
  },
  {
    "OBJECT_NAME": "CYGFM08",
    "OBJECT_ID": "2016-078E",
    "EPOCH": "2025-06-07T10:10:20.402400",
    "MEAN_MOTION": 15.41887546,
    "ECCENTRICITY": 0.0012241,
    "INCLINATION": 34.9456,
    "RA_OF_ASC_NODE": 177.8149,
    "ARG_OF_PERICENTER": 237.8394,
    "MEAN_ANOMALY": 122.1139,
    "EPHEMERIS_TYPE": 0,
    "CLASSIFICATION_TYPE": "U",
    "NORAD_CAT_ID": 41888,
    "ELEMENT_SET_NO": 999,
    "REV_AT_EPOCH": 47079,
    "BSTAR": 0.00021757,
    "MEAN_MOTION_DOT": 9.501e-05,
    "MEAN_MOTION_DDOT": 0
  },
  {
    "OBJECT_NAME": "CYGFM07",
    "OBJECT_ID": "2016-078G",
    "EPOCH": "2025-06-07T10:23:35.541600",
    "MEAN_MOTION": 15.42450903,
    "ECCENTRICITY": 0.0010386,
    "INCLINATION": 34.9471,
    "RA_OF_ASC_NODE": 167.7956,
    "ARG_OF_PERICENTER": 253.5262,
    "MEAN_ANOMALY": 106.4317,
    "EPHEMERIS_TYPE": 0,
    "CLASSIFICATION_TYPE": "U",
    "NORAD_CAT_ID": 41890,
    "ELEMENT_SET_NO": 999,
    "REV_AT_EPOCH": 47080,
    "BSTAR": 0.00021382,
    "MEAN_MOTION_DOT": 9.508e-05,
    "MEAN_MOTION_DDOT": 0
  },
  {
    "OBJECT_NAME": "CYGFM03",
    "OBJECT_ID": "2016-078H",
    "EPOCH": "2025-06-07T10:30:56.275776",
    "MEAN_MOTION": 15.42218195,
    "ECCENTRICITY": 0.0009434,
    "INCLINATION": 34.9425,
    "RA_OF_ASC_NODE": 169.3771,
    "ARG_OF_PERICENTER": 240.2194,
    "MEAN_ANOMALY": 119.7588,
    "EPHEMERIS_TYPE": 0,
    "CLASSIFICATION_TYPE": "U",
    "NORAD_CAT_ID": 41891,
    "ELEMENT_SET_NO": 999,
    "REV_AT_EPOCH": 47078,
    "BSTAR": 0.00021207,
    "MEAN_MOTION_DOT": 9.353e-05,
    "MEAN_MOTION_DDOT": 0
  },
  {
    "OBJECT_NAME": "FENGYUN 3D",
    "OBJECT_ID": "2017-072A",
    "EPOCH": "2025-06-07T20:10:01.708320",
    "MEAN_MOTION": 14.19629827,
    "ECCENTRICITY": 0.0002445,
    "INCLINATION": 98.962,
    "RA_OF_ASC_NODE": 122.6396,
    "ARG_OF_PERICENTER": 59.4408,
    "MEAN_ANOMALY": 300.7008,
    "EPHEMERIS_TYPE": 0,
    "CLASSIFICATION_TYPE": "U",
    "NORAD_CAT_ID": 43010,
    "ELEMENT_SET_NO": 999,
    "REV_AT_EPOCH": 39187,
    "BSTAR": 5.3041e-05,
    "MEAN_MOTION_DOT": 6.6e-07,
    "MEAN_MOTION_DDOT": 0
  },
  {
    "OBJECT_NAME": "NOAA 20 (JPSS-1)",
    "OBJECT_ID": "2017-073A",
    "EPOCH": "2025-06-07T20:46:23.859552",
    "MEAN_MOTION": 14.19542752,
    "ECCENTRICITY": 5.91e-05,
    "INCLINATION": 98.7417,
    "RA_OF_ASC_NODE": 97.4641,
    "ARG_OF_PERICENTER": 16.6669,
    "MEAN_ANOMALY": 343.4526,
    "EPHEMERIS_TYPE": 0,
    "CLASSIFICATION_TYPE": "U",
    "NORAD_CAT_ID": 43013,
    "ELEMENT_SET_NO": 999,
    "REV_AT_EPOCH": 39136,
    "BSTAR": 4.56e-05,
    "MEAN_MOTION_DOT": 5.2e-07,
    "MEAN_MOTION_DDOT": 0
  },
  {
    "OBJECT_NAME": "GOES 17",
    "OBJECT_ID": "2018-022A",
    "EPOCH": "2025-06-07T20:50:38.734368",
    "MEAN_MOTION": 1.00271928,
    "ECCENTRICITY": 0.0003175,
    "INCLINATION": 0.0116,
    "RA_OF_ASC_NODE": 262.0864,
    "ARG_OF_PERICENTER": 204.363,
    "MEAN_ANOMALY": 358.3103,
    "EPHEMERIS_TYPE": 0,
    "CLASSIFICATION_TYPE": "U",
    "NORAD_CAT_ID": 43226,
    "ELEMENT_SET_NO": 999,
    "REV_AT_EPOCH": 2668,
    "BSTAR": 0,
    "MEAN_MOTION_DOT": -7.5e-07,
    "MEAN_MOTION_DDOT": 0
  },
  {
    "OBJECT_NAME": "FENGYUN 2H",
    "OBJECT_ID": "2018-050A",
    "EPOCH": "2025-06-07T22:01:34.883040",
    "MEAN_MOTION": 1.00268697,
    "ECCENTRICITY": 6.82e-05,
    "INCLINATION": 2.0674,
    "RA_OF_ASC_NODE": 83.5331,
    "ARG_OF_PERICENTER": 89.0271,
    "MEAN_ANOMALY": 133.4752,
    "EPHEMERIS_TYPE": 0,
    "CLASSIFICATION_TYPE": "U",
    "NORAD_CAT_ID": 43491,
    "ELEMENT_SET_NO": 999,
    "REV_AT_EPOCH": 2575,
    "BSTAR": 0,
    "MEAN_MOTION_DOT": -1.09e-06,
    "MEAN_MOTION_DDOT": 0
  },
  {
    "OBJECT_NAME": "METOP-C",
    "OBJECT_ID": "2018-087A",
    "EPOCH": "2025-06-07T19:32:41.561952",
    "MEAN_MOTION": 14.21485733,
    "ECCENTRICITY": 0.0001853,
    "INCLINATION": 98.7155,
    "RA_OF_ASC_NODE": 219.1695,
    "ARG_OF_PERICENTER": 134.7321,
    "MEAN_ANOMALY": 225.4007,
    "EPHEMERIS_TYPE": 0,
    "CLASSIFICATION_TYPE": "U",
    "NORAD_CAT_ID": 43689,
    "ELEMENT_SET_NO": 999,
    "REV_AT_EPOCH": 34164,
    "BSTAR": 6.5917e-05,
    "MEAN_MOTION_DOT": 1e-06,
    "MEAN_MOTION_DDOT": 0
  },
  {
    "OBJECT_NAME": "GEO-KOMPSAT-2A",
    "OBJECT_ID": "2018-100A",
    "EPOCH": "2025-06-07T21:24:56.509344",
    "MEAN_MOTION": 1.00273289,
    "ECCENTRICITY": 0.0002627,
    "INCLINATION": 0.0401,
    "RA_OF_ASC_NODE": 128.9567,
    "ARG_OF_PERICENTER": 316.1683,
    "MEAN_ANOMALY": 260.8985,
    "EPHEMERIS_TYPE": 0,
    "CLASSIFICATION_TYPE": "U",
    "NORAD_CAT_ID": 43823,
    "ELEMENT_SET_NO": 999,
    "REV_AT_EPOCH": 2391,
    "BSTAR": 0,
    "MEAN_MOTION_DOT": -3.25e-06,
    "MEAN_MOTION_DDOT": 0
  },
  {
    "OBJECT_NAME": "METEOR-M2 2",
    "OBJECT_ID": "2019-038A",
    "EPOCH": "2025-06-07T21:09:57.493152",
    "MEAN_MOTION": 14.2420834,
    "ECCENTRICITY": 0.0001959,
    "INCLINATION": 98.874,
    "RA_OF_ASC_NODE": 136.5462,
    "ARG_OF_PERICENTER": 50.4706,
    "MEAN_ANOMALY": 309.6645,
    "EPHEMERIS_TYPE": 0,
    "CLASSIFICATION_TYPE": "U",
    "NORAD_CAT_ID": 44387,
    "ELEMENT_SET_NO": 999,
    "REV_AT_EPOCH": 30801,
    "BSTAR": 5.2e-05,
    "MEAN_MOTION_DOT": 7.4e-07,
    "MEAN_MOTION_DDOT": 0
  },
  {
    "OBJECT_NAME": "ARKTIKA-M 1",
    "OBJECT_ID": "2021-016A",
    "EPOCH": "2025-06-07T03:52:42.416256",
    "MEAN_MOTION": 2.00596083,
    "ECCENTRICITY": 0.7105611,
    "INCLINATION": 63.1485,
    "RA_OF_ASC_NODE": 108.9698,
    "ARG_OF_PERICENTER": 268.6294,
    "MEAN_ANOMALY": 16.5938,
    "EPHEMERIS_TYPE": 0,
    "CLASSIFICATION_TYPE": "U",
    "NORAD_CAT_ID": 47719,
    "ELEMENT_SET_NO": 999,
    "REV_AT_EPOCH": 3127,
    "BSTAR": 0,
    "MEAN_MOTION_DOT": 2.4e-07,
    "MEAN_MOTION_DDOT": 0
  }
]