41885,CYGFM04,2016,93.35,29.0,X,34.93,Active,1,LEO,Eastern Range Airspace,USA,Government,Earth Observation,Pegasus,1 41885U 16078B   25158.41360050  .00010083  00000+0  22625-3 0  9999,2 41885  34.9343 168.7032 0010075 247.7822 112.1829 15.42506179470786,15.42506179,0.0010075,LEO
41886,CYGFM02,2016,93.3,29.0,X,34.94,Active,1,LEO,Eastern Range Airspace,USA,Government,Earth Observation,Pegasus,1 41886U 16078C   25158.41992952  .00011353  00000+0  24741-3 0  9994,2 41886  34.9431 168.9528 0011800 242.5816 117.3704 15.43335118470895,15.43335118,0.00118,LEO
41887,CYGFM01,2016,93.45,29.0,X,34.94,Active,1,LEO,Eastern Range Airspace,USA,Government,Earth Observation,Pegasus,1 41887U 16078D   25158.50177602  .00009109  00000+0  21523-3 0  9993,2 41887  34.9429 192.4689 0010117 216.1266 143.8770 15.40982602470596,15.40982602,0.0010117,LEO
41888,CYGFM08,2016,93.39,29.0,X,34.95,Active,1,LEO,Eastern Range Airspace,USA,Government,Earth Observation,Pegasus,1 41888U 16078E   25158.42384725  .00009501  00000+0  21757-3 0  9996,2 41888  34.9456 177.8149 0012241 237.8394 122.1139 15.41887546470790,15.41887546,0.0012241,LEO
41890,CYGFM07,2016,93.36,29.0,X,34.95,Active,1,LEO,Eastern Range Airspace,USA,Government,Earth Observation,Pegasus,1 41890U 16078G   25158.43305025  .00009508  00000+0  21382-3 0  9997,2 41890  34.9471 167.7956 0010386 253.5262 106.4317 15.42450903470800,15.42450903,0.0010386,LEO
41891,CYGFM03,2016,93.37,29.0,X,34.94,Active,1,LEO,Eastern Range Airspace,USA,Government,Earth Observation,Pegasus,1 41891U 16078H   25158.43815134  .00009353  00000+0  21207-3 0  9999,2 41891  34.9425 169.3771 0009434 240.2194 119.7588 15.42218195470781,15.42218195,0.0009434,LEO
43010,FENGYUN 3D,2017,101.43,2300.0,+,98.96,Active,1,LEO,PRC,China,Government,Earth Observation,Long March,1 43010U 17072A   25158.84029755  .00000066  00000+0  53041-4 0  9994,2 43010  98.9620 122.6396 0002445  59.4408 300.7008 14.19629827391873,14.19629827,0.0002445,LEO
43013,NOAA 20 (JPSS-1),2017,101.44,2294.0,+,98.74,Active,1,LEO,USA,USA,Government,Earth Observation,Delta,1 43013U 17073A   25158.86555393  .00000052  00000+0  45600-4 0  9999,2 43013  98.7417  97.4641 0000591  16.6669 343.4526 14.19542752391368,14.19542752,5.91e-05,LEO
43226,GOES 17,2018,1436.09,5211.0,B,0.01,Active,1,GSO,USA,USA,Government,Earth Observation,Atlas,1 43226U 18022A   25158.86850387 -.00000075  00000+0  00000+0 0  9997,2 43226   0.0116 262.0864 0003175 204.3630 358.3103  1.00271928 26684,1.00271928,0.0003175,GEO
43491,FENGYUN 2H,2018,1436.14,1380.0,+,2.07,Active,1,GSO,PRC,China,Government,Earth Observation,Long March,1 43491U 18050A   25158.91776485 -.00000109  00000+0  00000+0 0  9992,2 43491   2.0674  83.5331 0000682  89.0271 133.4752  1.00268697 25751,1.00268697,6.82e-05,GSO
43689,METOP-C,2018,101.3,4084.0,+,98.72,Active,1,LEO,French Guiana,EUMETSAT,Civil/Government,Earth Observation,Soyuz,1 43689U 18087A   25158.81436993  .00000100  00000+0  65917-4 0  9990,2 43689  98.7155 219.1695 0001853 134.7321 225.4007 14.21485733341644,14.21485733,0.0001853,LEO
43823,GEO-KOMPSAT-2A,2018,1436.11,3507.0,+,0.02,Active,1,GSO,French Guiana,South Korea,Government,Earth Observation,Ariane,1 43823U 18100A   25158.89232071 -.00000325  00000+0  00000+0 0  9992,2 43823   0.0401 128.9567 0002627 316.1683 260.8985  1.00273289 23915,1.00273289,0.0002627,GEO
44387,METEOR-M2 2,2019,101.11,2900.0,P,98.87,Active,1,LEO,Russia,Russia/USSR,Government,Earth Observation,Soyuz,1 44387U 19038A   25158.88191543  .00000074  00000+0  52000-4 0  9998,2 44387  98.8740 136.5462 0001959  50.4706 309.6645 14.24208340308010,14.2420834,0.0001959,LEO
47719,ARKTIKA-M 1,2021,717.86,2200.0,+,63.15,Active,1,MEO,Kazakhstan,Russia/USSR,Government,Earth Observation,Soyuz,1 47719U 21016A   25158.16160204  .00000024  00000+0  00000+0 0  9993,2 47719  63.1485 108.9698 7105611 268.6294  16.5938  2.00596083 31274,2.00596083,0.7105611,MEO
